[{"OBJECT_NAME":"FENGYUN 1C DEB","OBJECT_ID":"1999-025FBU","EPOCH":"2026-03-01T05:16:44.461056","MEAN_MOTION":14.22949203,"ECCENTRICITY":0.0054435,"INCLINATION":98.9968,"RA_OF_ASC_NODE":324.4262,"ARG_OF_PERICENTER":167.6967,"MEAN_ANOMALY":344.5033,"EPHEMERIS_TYPE":0,"CLASSIFICATION_TYPE":"U","NORAD_CAT_ID":47042,"ELEMENT_SET_NO":999,"REV_AT_EPOCH":63637,"BSTAR":0.00023789,"MEAN_MOTION_DOT":4.97e-6,"MEAN_MOTION_DDOT":0},{"OBJECT_NAME":"FENGYUN 1C DEB","OBJECT_ID":"1999-025FBY","EPOCH":"2026-03-04T11:15:15.985728","MEAN_MOTION":14.53293377,"ECCENTRICITY":0.00859026,"INCLINATION":99.0238,"RA_OF_ASC_NODE":254.0905,"ARG_OF_PERICENTER":108.5042,"MEAN_ANOMALY":252.5511,"EPHEMERIS_TYPE":0,"CLASSIFICATION_TYPE":"U","NORAD_CAT_ID":47100,"ELEMENT_SET_NO":999,"REV_AT_EPOCH":27954,"BSTAR":0.0034799739,"MEAN_MOTION_DOT":0.00015148,"MEAN_MOTION_DDOT":0},{"OBJECT_NAME":"FENGYUN 1C DEB","OBJECT_ID":"1999-025FCC","EPOCH":"2026-03-04T07:53:01.068576","MEAN_MOTION":14.19515193,"ECCENTRICITY":0.00417591,"INCLINATION":98.9008,"RA_OF_ASC_NODE":98.3093,"ARG_OF_PERICENTER":102.158,"MEAN_ANOMALY":258.4278,"EPHEMERIS_TYPE":0,"CLASSIFICATION_TYPE":"U","NORAD_CAT_ID":47104,"ELEMENT_SET_NO":999,"REV_AT_EPOCH":63530,"BSTAR":0.00027902194,"MEAN_MOTION_DOT":5.48e-6,"MEAN_MOTION_DDOT":0},{"OBJECT_NAME":"FENGYUN 1C DEB","OBJECT_ID":"1999-025FCG","EPOCH":"2026-02-28T08:15:38.019456","MEAN_MOTION":14.10209143,"ECCENTRICITY":0.01287852,"INCLINATION":99.2556,"RA_OF_ASC_NODE":27.9231,"ARG_OF_PERICENTER":242.8258,"MEAN_ANOMALY":115.9734,"EPHEMERIS_TYPE":0,"CLASSIFICATION_TYPE":"U","NORAD_CAT_ID":48518,"ELEMENT_SET_NO":999,"REV_AT_EPOCH":61263,"BSTAR":0.0018508028,"MEAN_MOTION_DOT":3.494e-5,"MEAN_MOTION_DDOT":0}]
