FENGYUN 1C DEB          
1 47042U 99025FBU 26060.21995904  .00000497  00000+0  23789-3 0  9996
2 47042  98.9968 324.4262 0054435 167.6967 344.5033 14.22949203636377
FENGYUN 1C DEB          
1 47100U 99025FBY 26063.46893502  .00015148  00000+0  34800-2 0  9996
2 47100  99.0238 254.0905 0085902 108.5042 252.5511 14.53293377279546
FENGYUN 1C DEB          
1 47104U 99025FCC 26063.32848459  .00000548  00000+0  27902-3 0  9990
2 47104  98.9008  98.3093 0041759 102.1580 258.4278 14.19515193635309
FENGYUN 1C DEB          
1 48518U 99025FCG 26059.34419004  .00003494  00000+0  18508-2 0  9991
2 48518  99.2556  27.9231 0128785 242.8258 115.9734 14.10209143612633
